48299,STARLINK-2557,2021,95.59,260.0,+,53.06,Active,1,LEO,USA,USA,Commercial,Communications,Falcon,1 48299U 21036Z   25301.31016733  .00002309  00000+0  17390-3 0  9995,2 48299  53.0552 315.8919 0001312  90.0870 270.0270 15.06394165248362,15.06394165,0.0001312,LEO
48300,STARLINK-2538,2021,95.59,260.0,+,53.06,Active,1,LEO,USA,USA,Commercial,Communications,Falcon,1 48300U 21036AA  25301.50090534  .00000203  00000+0  32544-4 0  9990,2 48300  53.0545 325.0399 0001303  93.4365 266.6773 15.06391998248256,15.06391998,0.0001303,LEO
48301,STARLINK-2537,2021,95.59,260.0,+,53.05,Active,1,LEO,USA,USA,Commercial,Communications,Falcon,1 48301U 21036AB  25301.36453775  .00007776  00000+0  54026-3 0  9995,2 48301  53.0534 325.6481 0001428  82.5092 277.6059 15.06407231248221,15.06407231,0.0001428,LEO
48303,STARLINK-2530,2021,95.59,260.0,+,53.05,Active,1,LEO,USA,USA,Commercial,Communications,Falcon,1 48303U 21036AD  25301.34247916  .00002391  00000+0  17933-3 0  9997,2 48303  53.0540 326.2890 0001368  80.3866 279.7278 15.06402189248211,15.06402189,0.0001368,LEO
48304,STARLINK-2524,2021,95.59,260.0,+,53.05,Active,1,LEO,USA,USA,Commercial,Communications,Falcon,1 48304U 21036AE  25301.35346886  .00001240  00000+0  10214-3 0  9992,2 48304  53.0548 325.6977 0001372  92.6470 267.4676 15.06400611248226,15.06400611,0.0001372,LEO
48305,STARLINK-2519,2021,95.59,260.0,+,53.06,Active,1,LEO,USA,USA,Commercial,Communications,Falcon,1 48305U 21036AF  25301.33879769  .00004385  00000+0  31310-3 0  9995,2 48305  53.0550 326.3422 0001421  91.8374 268.2778 15.06400457248211,15.06400457,0.0001421,LEO
48306,STARLINK-2523,2021,95.59,260.0,+,53.05,Active,1,LEO,USA,USA,Commercial,Communications,Falcon,1 48306U 21036AG  25301.34610896  .00008281  00000+0  57413-3 0  9992,2 48306  53.0551 325.7321 0001285  98.8377 261.2758 15.06400867248229,15.06400867,0.0001285,LEO
48309,STARLINK-2517,2021,95.59,260.0,+,53.05,Active,1,LEO,USA,USA,Commercial,Communications,Falcon,1 48309U 21036AK  25301.33504525  .00004955  00000+0  35129-3 0  9999,2 48309  53.0544 325.7818 0001566  92.3036 267.8132 15.06404774248227,15.06404774,0.0001566,LEO
48310,STARLINK-2536,2021,95.59,260.0,+,53.06,Active,1,LEO,USA,USA,Commercial,Communications,Falcon,1 48310U 21036AL  25301.33135866  .00002213  00000+0  16745-3 0  9997,2 48310  53.0549 325.7976 0001351  90.2039 269.9104 15.06392090248220,15.0639209,0.0001351,LEO
48311,STARLINK-2534,2021,95.59,260.0,+,53.05,Active,1,LEO,USA,USA,Commercial,Communications,Falcon,1 48311U 21036AM  25301.39401741  .00002494  00000+0  18629-3 0  9996,2 48311  53.0544 325.5151 0001545  87.4149 272.7017 15.06397855248234,15.06397855,0.0001545,LEO
48312,STARLINK-2061,2021,95.59,260.0,+,53.05,Active,1,LEO,USA,USA,Commercial,Communications,Falcon,1 48312U 21036AN  25301.39032640  .00003743  00000+0  27004-3 0  9990,2 48312  53.0544 325.5319 0001338  92.3637 267.7505 15.06400923248235,15.06400923,0.0001338,LEO
48314,STARLINK-2549,2021,95.59,260.0,+,53.06,Active,1,LEO,USA,USA,Commercial,Communications,Falcon,1 48314U 21036AQ  25301.51564852  .00000602  00000+0  59290-4 0  9995,2 48314  53.0547 324.9715 0001519  92.3071 267.8092 15.06401721248246,15.06401721,0.0001519,LEO
48315,STARLINK-2506,2021,95.59,260.0,+,53.05,Active,1,LEO,USA,USA,Commercial,Communications,Falcon,1 48315U 21036AR  25301.31292926  .00002077  00000+0  15830-3 0  9993,2 48315  53.0549 325.8813 0001694  96.8749 263.2433 15.06396996248216,15.06396996,0.0001694,LEO
48316,STARLINK-2507,2021,95.59,260.0,+,53.05,Active,1,LEO,USA,USA,Commercial,Communications,Falcon,1 48316U 21036AS  25301.37557788  .00006835  00000+0  47713-3 0  9991,2 48316  53.0545 325.6003 0001397  83.2528 276.8620 15.06412914248225,15.06412914,0.0001397,LEO
48317,STARLINK-2513,2021,95.59,260.0,+,53.06,Active,1,LEO,USA,USA,Commercial,Communications,Falcon,1 48317U 21036AT  25301.37190616 -.00000210  00000+0  48069-5 0  9994,2 48317  53.0558 325.6164 0001274  91.9059 268.2076 15.06392263248221,15.06392263,0.0001274,LEO
48318,STARLINK-2509,2021,95.59,260.0,+,53.06,Active,1,LEO,USA,USA,Commercial,Communications,Falcon,1 48318U 21036AU  25301.36361471  .00002081  00000+0  15857-3 0  9997,2 48318  53.0540 335.6519 0001427  83.6652 276.4499 15.06393738248087,15.06393738,0.0001427,LEO
