[{"OBJECT_NAME":"STARLINK-2557","OBJECT_ID":"2021-036Z","EPOCH":"2025-10-28T07:26:38.457312","MEAN_MOTION":15.06394165,"ECCENTRICITY":0.0001312,"INCLINATION":53.0552,"RA_OF_ASC_NODE":315.8919,"ARG_OF_PERICENTER":90.087,"MEAN_ANOMALY":270.027,"EPHEMERIS_TYPE":0,"CLASSIFICATION_TYPE":"U","NORAD_CAT_ID":48299,"ELEMENT_SET_NO":999,"REV_AT_EPOCH":24836,"BSTAR":0.00017390186,"MEAN_MOTION_DOT":2.309e-5,"MEAN_MOTION_DDOT":0},{"OBJECT_NAME":"STARLINK-2538","OBJECT_ID":"2021-036AA","EPOCH":"2025-10-28T12:01:18.221376","MEAN_MOTION":15.06391998,"ECCENTRICITY":0.00013031,"INCLINATION":53.0545,"RA_OF_ASC_NODE":325.0399,"ARG_OF_PERICENTER":93.4365,"MEAN_ANOMALY":266.6773,"EPHEMERIS_TYPE":0,"CLASSIFICATION_TYPE":"U","NORAD_CAT_ID":48300,"ELEMENT_SET_NO":999,"REV_AT_EPOCH":24825,"BSTAR":3.2543662e-5,"MEAN_MOTION_DOT":2.03e-6,"MEAN_MOTION_DDOT":0},{"OBJECT_NAME":"STARLINK-2537","OBJECT_ID":"2021-036AB","EPOCH":"2025-10-28T08:44:56.061600","MEAN_MOTION":15.06407231,"ECCENTRICITY":0.00014283,"INCLINATION":53.0534,"RA_OF_ASC_NODE":325.6481,"ARG_OF_PERICENTER":82.5092,"MEAN_ANOMALY":277.6059,"EPHEMERIS_TYPE":0,"CLASSIFICATION_TYPE":"U","NORAD_CAT_ID":48301,"ELEMENT_SET_NO":999,"REV_AT_EPOCH":24822,"BSTAR":0.00054026095,"MEAN_MOTION_DOT":7.776e-5,"MEAN_MOTION_DDOT":0},{"OBJECT_NAME":"STARLINK-2530","OBJECT_ID":"2021-036AD","EPOCH":"2025-10-28T08:13:10.199424","MEAN_MOTION":15.06402189,"ECCENTRICITY":0.00013688,"INCLINATION":53.054,"RA_OF_ASC_NODE":326.289,"ARG_OF_PERICENTER":80.3866,"MEAN_ANOMALY":279.7278,"EPHEMERIS_TYPE":0,"CLASSIFICATION_TYPE":"U","NORAD_CAT_ID":48303,"ELEMENT_SET_NO":999,"REV_AT_EPOCH":24821,"BSTAR":0.00017933182,"MEAN_MOTION_DOT":2.391e-5,"MEAN_MOTION_DDOT":0},{"OBJECT_NAME":"STARLINK-2524","OBJECT_ID":"2021-036AE","EPOCH":"2025-10-28T08:28:59.709504","MEAN_MOTION":15.06400611,"ECCENTRICITY":0.00013729,"INCLINATION":53.0548,"RA_OF_ASC_NODE":325.6977,"ARG_OF_PERICENTER":92.647,"MEAN_ANOMALY":267.4676,"EPHEMERIS_TYPE":0,"CLASSIFICATION_TYPE":"U","NORAD_CAT_ID":48304,"ELEMENT_SET_NO":999,"REV_AT_EPOCH":24822,"BSTAR":0.00010213978,"MEAN_MOTION_DOT":1.24e-5,"MEAN_MOTION_DDOT":0},{"OBJECT_NAME":"STARLINK-2519","OBJECT_ID":"2021-036AF","EPOCH":"2025-10-28T08:07:52.120416","MEAN_MOTION":15.06400457,"ECCENTRICITY":0.00014219,"INCLINATION":53.055,"RA_OF_ASC_NODE":326.3422,"ARG_OF_PERICENTER":91.8374,"MEAN_ANOMALY":268.2778,"EPHEMERIS_TYPE":0,"CLASSIFICATION_TYPE":"U","NORAD_CAT_ID":48305,"ELEMENT_SET_NO":999,"REV_AT_EPOCH":24821,"BSTAR":0.00031309826,"MEAN_MOTION_DOT":4.385e-5,"MEAN_MOTION_DDOT":0},{"OBJECT_NAME":"STARLINK-2523","OBJECT_ID":"2021-036AG","EPOCH":"2025-10-28T08:18:23.814144","MEAN_MOTION":15.06400867,"ECCENTRICITY":0.00012854,"INCLINATION":53.0551,"RA_OF_ASC_NODE":325.7321,"ARG_OF_PERICENTER":98.8377,"MEAN_ANOMALY":261.2758,"EPHEMERIS_TYPE":0,"CLASSIFICATION_TYPE":"U","NORAD_CAT_ID":48306,"ELEMENT_SET_NO":999,"REV_AT_EPOCH":24822,"BSTAR":0.00057412596,"MEAN_MOTION_DOT":8.281e-5,"MEAN_MOTION_DDOT":0},{"OBJECT_NAME":"STARLINK-2517","OBJECT_ID":"2021-036AK","EPOCH":"2025-10-28T08:02:27.909600","MEAN_MOTION":15.06404774,"ECCENTRICITY":0.00015669,"INCLINATION":53.0544,"RA_OF_ASC_NODE":325.7818,"ARG_OF_PERICENTER":92.3036,"MEAN_ANOMALY":267.8132,"EPHEMERIS_TYPE":0,"CLASSIFICATION_TYPE":"U","NORAD_CAT_ID":48309,"ELEMENT_SET_NO":999,"REV_AT_EPOCH":24822,"BSTAR":0.00035129447,"MEAN_MOTION_DOT":4.955e-5,"MEAN_MOTION_DDOT":0},{"OBJECT_NAME":"STARLINK-2536","OBJECT_ID":"2021-036AL","EPOCH":"2025-10-28T07:57:09.388224","MEAN_MOTION":15.0639209,"ECCENTRICITY":0.00013515,"INCLINATION":53.0549,"RA_OF_ASC_NODE":325.7976,"ARG_OF_PERICENTER":90.2039,"MEAN_ANOMALY":269.9104,"EPHEMERIS_TYPE":0,"CLASSIFICATION_TYPE":"U","NORAD_CAT_ID":48310,"ELEMENT_SET_NO":999,"REV_AT_EPOCH":24822,"BSTAR":0.00016744693,"MEAN_MOTION_DOT":2.213e-5,"MEAN_MOTION_DDOT":0},{"OBJECT_NAME":"STARLINK-2534","OBJECT_ID":"2021-036AM","EPOCH":"2025-10-28T09:27:23.104224","MEAN_MOTION":15.06397855,"ECCENTRICITY":0.0001545,"INCLINATION":53.0544,"RA_OF_ASC_NODE":325.5151,"ARG_OF_PERICENTER":87.4149,"MEAN_ANOMALY":272.7017,"EPHEMERIS_TYPE":0,"CLASSIFICATION_TYPE":"U","NORAD_CAT_ID":48311,"ELEMENT_SET_NO":999,"REV_AT_EPOCH":24823,"BSTAR":0.00018628549,"MEAN_MOTION_DOT":2.494e-5,"MEAN_MOTION_DDOT":0},{"OBJECT_NAME":"STARLINK-2061","OBJECT_ID":"2021-036AN","EPOCH":"2025-10-28T09:22:04.200960","MEAN_MOTION":15.06400923,"ECCENTRICITY":0.00013385,"INCLINATION":53.0544,"RA_OF_ASC_NODE":325.5319,"ARG_OF_PERICENTER":92.3637,"MEAN_ANOMALY":267.7505,"EPHEMERIS_TYPE":0,"CLASSIFICATION_TYPE":"U","NORAD_CAT_ID":48312,"ELEMENT_SET_NO":999,"REV_AT_EPOCH":24823,"BSTAR":0.00027003947,"MEAN_MOTION_DOT":3.743e-5,"MEAN_MOTION_DDOT":0},{"OBJECT_NAME":"STARLINK-2549","OBJECT_ID":"2021-036AQ","EPOCH":"2025-10-28T12:22:32.032128","MEAN_MOTION":15.06401721,"ECCENTRICITY":0.00015194,"INCLINATION":53.0547,"RA_OF_ASC_NODE":324.9715,"ARG_OF_PERICENTER":92.3071,"MEAN_ANOMALY":267.8092,"EPHEMERIS_TYPE":0,"CLASSIFICATION_TYPE":"U","NORAD_CAT_ID":48314,"ELEMENT_SET_NO":999,"REV_AT_EPOCH":24824,"BSTAR":5.9289756e-5,"MEAN_MOTION_DOT":6.02e-6,"MEAN_MOTION_DDOT":0},{"OBJECT_NAME":"STARLINK-2506","OBJECT_ID":"2021-036AR","EPOCH":"2025-10-28T07:30:37.088064","MEAN_MOTION":15.06396996,"ECCENTRICITY":0.00016946,"INCLINATION":53.0549,"RA_OF_ASC_NODE":325.8813,"ARG_OF_PERICENTER":96.8749,"MEAN_ANOMALY":263.2433,"EPHEMERIS_TYPE":0,"CLASSIFICATION_TYPE":"U","NORAD_CAT_ID":48315,"ELEMENT_SET_NO":999,"REV_AT_EPOCH":24821,"BSTAR":0.000158298,"MEAN_MOTION_DOT":2.077e-5,"MEAN_MOTION_DDOT":0},{"OBJECT_NAME":"STARLINK-2507","OBJECT_ID":"2021-036AS","EPOCH":"2025-10-28T09:00:49.928832","MEAN_MOTION":15.06412914,"ECCENTRICITY":0.00013976,"INCLINATION":53.0545,"RA_OF_ASC_NODE":325.6003,"ARG_OF_PERICENTER":83.2528,"MEAN_ANOMALY":276.862,"EPHEMERIS_TYPE":0,"CLASSIFICATION_TYPE":"U","NORAD_CAT_ID":48316,"ELEMENT_SET_NO":999,"REV_AT_EPOCH":24822,"BSTAR":0.00047712622,"MEAN_MOTION_DOT":6.835e-5,"MEAN_MOTION_DDOT":0},{"OBJECT_NAME":"STARLINK-2513","OBJECT_ID":"2021-036AT","EPOCH":"2025-10-28T08:55:32.692224","MEAN_MOTION":15.06392263,"ECCENTRICITY":0.00012743,"INCLINATION":53.0558,"RA_OF_ASC_NODE":325.6164,"ARG_OF_PERICENTER":91.9059,"MEAN_ANOMALY":268.2076,"EPHEMERIS_TYPE":0,"CLASSIFICATION_TYPE":"U","NORAD_CAT_ID":48317,"ELEMENT_SET_NO":999,"REV_AT_EPOCH":24822,"BSTAR":4.806893e-6,"MEAN_MOTION_DOT":-2.1e-6,"MEAN_MOTION_DDOT":0},{"OBJECT_NAME":"STARLINK-2509","OBJECT_ID":"2021-036AU","EPOCH":"2025-10-28T08:43:36.310944","MEAN_MOTION":15.06393738,"ECCENTRICITY":0.00014272,"INCLINATION":53.054,"RA_OF_ASC_NODE":335.6519,"ARG_OF_PERICENTER":83.6652,"MEAN_ANOMALY":276.4499,"EPHEMERIS_TYPE":0,"CLASSIFICATION_TYPE":"U","NORAD_CAT_ID":48318,"ELEMENT_SET_NO":999,"REV_AT_EPOCH":24808,"BSTAR":0.00015857034,"MEAN_MOTION_DOT":2.081e-5,"MEAN_MOTION_DDOT":0}]
